H1 CPF 01  gfz 2022 02 10 13  5412 tandemx   
H2 1003001  6202 36605    2022 02 10 12 59 42 2022 02 15 00 00 42   120 1 1  0 0 0
H9
10 0 59624  82062.000000  0   -2099250.531   6537416.697   -572876.627
10 0 59624  82182.000000  0   -1889134.308   6462556.942  -1467310.625
10 0 59624  82302.000000  0   -1648372.515   6270930.031  -2335945.881
10 0 59624  82422.000000  0   -1383210.091   5965495.169  -3163546.935
10 0 59624  82542.000000  0   -1100241.998   5551312.852  -3935631.112
10 0 59624  82662.000000  0    -806259.349   5035450.050  -4638722.234
10 0 59624  82782.000000  0    -508095.102   4426847.427  -5260581.802
10 0 59624  82902.000000  0    -212472.718   3736154.217  -5790415.491
10 0 59624  83022.000000  0      74139.111   2975532.446  -6219052.087
10 0 59624  83142.000000  0     345661.843   2158435.510  -6539090.828
10 0 59624  83262.000000  0     596529.996   1299368.315  -6745017.412
10 0 59624  83382.000000  0     821800.559    413631.199  -6833290.060
10 0 59624  83502.000000  0    1017246.627   -482948.576  -6802393.598
10 0 59624  83622.000000  0    1179433.950  -1374294.179  -6652861.624
10 0 59624  83742.000000  0    1305779.539  -2244359.504  -6387266.856
10 0 59624  83862.000000  0    1394592.507  -3077410.246  -6010182.736
10 0 59624  83982.000000  0    1445096.046  -3858305.041  -5528114.805
10 0 59624  84102.000000  0    1457429.145  -4572771.267  -4949398.205
10 0 59624  84222.000000  0    1432629.753  -5207667.433  -4284063.956
10 0 59624  84342.000000  0    1372598.213  -5751231.445  -3543676.677
10 0 59624  84462.000000  0    1280040.824  -6193308.332  -2741141.650
10 0 59624  84582.000000  0    1158396.025  -6525551.197  -1890485.223
10 0 59624  84702.000000  0    1011744.064  -6741591.183  -1006611.162
10 0 59624  84822.000000  0     844700.948  -6837170.712   -105036.906
10 0 59624  84942.000000  0     662300.284  -6810235.577    798384.327
10 0 59624  85062.000000  0     469865.862  -6660984.259   1687749.630
10 0 59624  85182.000000  0     272877.981  -6391872.298   2547395.834
10 0 59624  85302.000000  0      76836.994  -6007569.575   3362185.459
10 0 59624  85422.000000  0    -112873.001  -5514871.434   4117779.886
10 0 59624  85542.000000  0    -291116.195  -4922570.234   4800894.593
10 0 59624  85662.000000  0    -453129.319  -4241288.698   5399534.165
10 0 59624  85782.000000  0    -594635.078  -3483279.762   5903201.502
10 0 59624  85902.000000  0    -711942.851  -2662196.072   6303078.530
10 0 59624  86022.000000  0    -802034.287  -1792836.555   6592172.832
10 0 59624  86142.000000  0    -862632.403   -890877.141   6765433.162
10 0 59624  86262.000000  0    -892253.514     27413.372   6819833.747
10 0 59624  86382.000000  0    -890240.784    945467.292   6754424.085
99
